CCSDS_OMM_VERS = 2.0
CREATION_DATE  = 
ORIGINATOR     = 

OBJECT_NAME    = STARLINK-36805
OBJECT_ID      = 2026-044R
CENTER_NAME    = EARTH
REF_FRAME      = TEME
TIME_SYSTEM    = UTC
MEAN_ELEMENT_THEORY = SGP/SGP4

EPOCH          = 2026-03-19T16:00:01.999584
MEAN_MOTION    = 15.83096658
ECCENTRICITY   = .0001653
INCLINATION    = 97.2823
RA_OF_ASC_NODE = 39.3073
ARG_OF_PERICENTER = 105.2418
MEAN_ANOMALY   = 166.8781

EPHEMERIS_TYPE = 0
CLASSIFICATION_TYPE = U
NORAD_CAT_ID   = 68116
ELEMENT_SET_NO = 999
REV_AT_EPOCH   = 300
BSTAR          = -.10928E-1
MEAN_MOTION_DOT = -.2017624E-1
MEAN_MOTION_DDOT = 0

CCSDS_OMM_VERS = 2.0
CREATION_DATE  = 
ORIGINATOR     = 

OBJECT_NAME    = STARLINK-36844
OBJECT_ID      = 2026-044S
CENTER_NAME    = EARTH
REF_FRAME      = TEME
TIME_SYSTEM    = UTC
MEAN_ELEMENT_THEORY = SGP/SGP4

EPOCH          = 2026-03-19T16:00:01.999584
MEAN_MOTION    = 15.83214207
ECCENTRICITY   = .0001794
INCLINATION    = 97.2818
RA_OF_ASC_NODE = 39.3087
ARG_OF_PERICENTER = 103.5452
MEAN_ANOMALY   = 172.6358

EPHEMERIS_TYPE = 0
CLASSIFICATION_TYPE = U
NORAD_CAT_ID   = 68117
ELEMENT_SET_NO = 999
REV_AT_EPOCH   = 295
BSTAR          = -.109E-1
MEAN_MOTION_DOT = -.2022958E-1
MEAN_MOTION_DDOT = 0

CCSDS_OMM_VERS = 2.0
CREATION_DATE  = 
ORIGINATOR     = 

OBJECT_NAME    = STARLINK-36789
OBJECT_ID      = 2026-044T
CENTER_NAME    = EARTH
REF_FRAME      = TEME
TIME_SYSTEM    = UTC
MEAN_ELEMENT_THEORY = SGP/SGP4

EPOCH          = 2026-03-19T16:00:01.999584
MEAN_MOTION    = 15.83017665
ECCENTRICITY   = .0001645
INCLINATION    = 97.2816
RA_OF_ASC_NODE = 39.3111
ARG_OF_PERICENTER = 113.0800
MEAN_ANOMALY   = 167.7712

EPHEMERIS_TYPE = 0
CLASSIFICATION_TYPE = U
NORAD_CAT_ID   = 68118
ELEMENT_SET_NO = 999
REV_AT_EPOCH   = 295
BSTAR          = -.11072E-1
MEAN_MOTION_DOT = -.2033791E-1
MEAN_MOTION_DDOT = 0

CCSDS_OMM_VERS = 2.0
CREATION_DATE  = 
ORIGINATOR     = 

OBJECT_NAME    = STARLINK-36850
OBJECT_ID      = 2026-044U
CENTER_NAME    = EARTH
REF_FRAME      = TEME
TIME_SYSTEM    = UTC
MEAN_ELEMENT_THEORY = SGP/SGP4

EPOCH          = 2026-03-19T16:00:01.999584
MEAN_MOTION    = 15.83119657
ECCENTRICITY   = .0001877
INCLINATION    = 97.2816
RA_OF_ASC_NODE = 39.3125
ARG_OF_PERICENTER = 111.0770
MEAN_ANOMALY   = 173.8668

EPHEMERIS_TYPE = 0
CLASSIFICATION_TYPE = U
NORAD_CAT_ID   = 68119
ELEMENT_SET_NO = 999
REV_AT_EPOCH   = 295
BSTAR          = -.11161E-1
MEAN_MOTION_DOT = -.2056672E-1
MEAN_MOTION_DDOT = 0

CCSDS_OMM_VERS = 2.0
CREATION_DATE  = 
ORIGINATOR     = 

OBJECT_NAME    = STARLINK-36868
OBJECT_ID      = 2026-044V
CENTER_NAME    = EARTH
REF_FRAME      = TEME
TIME_SYSTEM    = UTC
MEAN_ELEMENT_THEORY = SGP/SGP4

EPOCH          = 2026-03-19T16:00:01.999584
MEAN_MOTION    = 15.83134144
ECCENTRICITY   = .0001692
INCLINATION    = 97.2811
RA_OF_ASC_NODE = 39.3144
ARG_OF_PERICENTER = 103.0194
MEAN_ANOMALY   = 186.1800

EPHEMERIS_TYPE = 0
CLASSIFICATION_TYPE = U
NORAD_CAT_ID   = 68120
ELEMENT_SET_NO = 999
REV_AT_EPOCH   = 295
BSTAR          = -.11194E-1
MEAN_MOTION_DOT = -.2062972E-1
MEAN_MOTION_DDOT = 0

CCSDS_OMM_VERS = 2.0
CREATION_DATE  = 
ORIGINATOR     = 

OBJECT_NAME    = STARLINK-36855
OBJECT_ID      = 2026-044W
CENTER_NAME    = EARTH
REF_FRAME      = TEME
TIME_SYSTEM    = UTC
MEAN_ELEMENT_THEORY = SGP/SGP4

EPOCH          = 2026-03-19T16:00:01.999584
MEAN_MOTION    = 15.83194791
ECCENTRICITY   = .0001805
INCLINATION    = 97.2809
RA_OF_ASC_NODE = 39.3165
ARG_OF_PERICENTER = 105.1968
MEAN_ANOMALY   = 188.1796

EPHEMERIS_TYPE = 0
CLASSIFICATION_TYPE = U
NORAD_CAT_ID   = 68121
ELEMENT_SET_NO = 999
REV_AT_EPOCH   = 295
BSTAR          = -.11234E-1
MEAN_MOTION_DOT = -.2074465E-1
MEAN_MOTION_DDOT = 0

CCSDS_OMM_VERS = 2.0
CREATION_DATE  = 
ORIGINATOR     = 

OBJECT_NAME    = STARLINK-36366
OBJECT_ID      = 2026-044X
CENTER_NAME    = EARTH
REF_FRAME      = TEME
TIME_SYSTEM    = UTC
MEAN_ELEMENT_THEORY = SGP/SGP4

EPOCH          = 2026-03-19T16:00:01.999584
MEAN_MOTION    = 15.83307209
ECCENTRICITY   = .0001535
INCLINATION    = 97.2806
RA_OF_ASC_NODE = 39.3184
ARG_OF_PERICENTER = 94.8815
MEAN_ANOMALY   = 202.5377

EPHEMERIS_TYPE = 0
CLASSIFICATION_TYPE = U
NORAD_CAT_ID   = 68122
ELEMENT_SET_NO = 999
REV_AT_EPOCH   = 300
BSTAR          = -.1101E-1
MEAN_MOTION_DOT = -.2047975E-1
MEAN_MOTION_DDOT = 0

CCSDS_OMM_VERS = 2.0
CREATION_DATE  = 
ORIGINATOR     = 

OBJECT_NAME    = STARLINK-36922
OBJECT_ID      = 2026-044Y
CENTER_NAME    = EARTH
REF_FRAME      = TEME
TIME_SYSTEM    = UTC
MEAN_ELEMENT_THEORY = SGP/SGP4

EPOCH          = 2026-03-19T16:00:01.999584
MEAN_MOTION    = 15.83472042
ECCENTRICITY   = .0001843
INCLINATION    = 97.2803
RA_OF_ASC_NODE = 39.3223
ARG_OF_PERICENTER = 107.0353
MEAN_ANOMALY   = 198.5638

EPHEMERIS_TYPE = 0
CLASSIFICATION_TYPE = U
NORAD_CAT_ID   = 68123
ELEMENT_SET_NO = 999
REV_AT_EPOCH   = 300
BSTAR          = -.10621E-1
MEAN_MOTION_DOT = -.19993E-1
MEAN_MOTION_DDOT = 0

CCSDS_OMM_VERS = 2.0
CREATION_DATE  = 
ORIGINATOR     = 

OBJECT_NAME    = STARLINK-36938
OBJECT_ID      = 2026-044Z
CENTER_NAME    = EARTH
REF_FRAME      = TEME
TIME_SYSTEM    = UTC
MEAN_ELEMENT_THEORY = SGP/SGP4

EPOCH          = 2026-03-19T16:00:01.999584
MEAN_MOTION    = 15.83649275
ECCENTRICITY   = .0001688
INCLINATION    = 97.2798
RA_OF_ASC_NODE = 39.3227
ARG_OF_PERICENTER = 100.3629
MEAN_ANOMALY   = 209.2327

EPHEMERIS_TYPE = 0
CLASSIFICATION_TYPE = U
NORAD_CAT_ID   = 68124
ELEMENT_SET_NO = 999
REV_AT_EPOCH   = 300
BSTAR          = -.11213E-1
MEAN_MOTION_DOT = -.2109833E-1
MEAN_MOTION_DDOT = 0

CCSDS_OMM_VERS = 2.0
CREATION_DATE  = 
ORIGINATOR     = 

OBJECT_NAME    = STARLINK-36839
OBJECT_ID      = 2026-044AA
CENTER_NAME    = EARTH
REF_FRAME      = TEME
TIME_SYSTEM    = UTC
MEAN_ELEMENT_THEORY = SGP/SGP4

EPOCH          = 2026-03-19T16:00:01.999584
MEAN_MOTION    = 15.83349830
ECCENTRICITY   = .0001594
INCLINATION    = 97.2806
RA_OF_ASC_NODE = 39.3208
ARG_OF_PERICENTER = 102.6140
MEAN_ANOMALY   = 198.9810

EPHEMERIS_TYPE = 0
CLASSIFICATION_TYPE = U
NORAD_CAT_ID   = 68125
ELEMENT_SET_NO = 999
REV_AT_EPOCH   = 295
BSTAR          = -.10856E-1
MEAN_MOTION_DOT = -.2026998E-1
MEAN_MOTION_DDOT = 0

CCSDS_OMM_VERS = 2.0
CREATION_DATE  = 
ORIGINATOR     = 

OBJECT_NAME    = ECHOSTAR 25
OBJECT_ID      = 2026-045A
CENTER_NAME    = EARTH
REF_FRAME      = TEME
TIME_SYSTEM    = UTC
MEAN_ELEMENT_THEORY = SGP/SGP4

EPOCH          = 2026-03-19T02:28:15.623904
MEAN_MOTION    = 1.79782376
ECCENTRICITY   = .4747686
INCLINATION    = 9.9581
RA_OF_ASC_NODE = 67.2584
ARG_OF_PERICENTER = 180.7477
MEAN_ANOMALY   = 178.3967

EPHEMERIS_TYPE = 0
CLASSIFICATION_TYPE = U
NORAD_CAT_ID   = 68126
ELEMENT_SET_NO = 999
REV_AT_EPOCH   = 19
BSTAR          = 0
MEAN_MOTION_DOT = -.47E-6
MEAN_MOTION_DDOT = 0

CCSDS_OMM_VERS = 2.0
CREATION_DATE  = 
ORIGINATOR     = 

OBJECT_NAME    = ICOR SV
OBJECT_ID      = 2026-046A
CENTER_NAME    = EARTH
REF_FRAME      = TEME
TIME_SYSTEM    = UTC
MEAN_ELEMENT_THEORY = SGP/SGP4

EPOCH          = 2026-03-13T21:49:43.816224
MEAN_MOTION    = 15.82606913
ECCENTRICITY   = .0140888
INCLINATION    = 123.0797
RA_OF_ASC_NODE = 224.1306
ARG_OF_PERICENTER = 188.2572
MEAN_ANOMALY   = 171.6170

EPHEMERIS_TYPE = 0
CLASSIFICATION_TYPE = U
NORAD_CAT_ID   = 68127
ELEMENT_SET_NO = 999
REV_AT_EPOCH   = 29
BSTAR          = .10434E-2
MEAN_MOTION_DOT = .482503E-2
MEAN_MOTION_DDOT = .92133E-4

