STARLINK-36805          
1 68116U 26044R   26078.66668981 -.02017624  00000+0 -10928-1 0  9995
2 68116  97.2823  39.3073 0001653 105.2418 166.8781 15.83096658  3007
STARLINK-36844          
1 68117U 26044S   26078.66668981 -.02022958  00000+0 -10900-1 0  9992
2 68117  97.2818  39.3087 0001794 103.5452 172.6358 15.83214207  2952
STARLINK-36789          
1 68118U 26044T   26078.66668981 -.02033791  00000+0 -11072-1 0  9991
2 68118  97.2816  39.3111 0001645 113.0800 167.7712 15.83017665  2955
STARLINK-36850          
1 68119U 26044U   26078.66668981 -.02056672  00000+0 -11161-1 0  9994
2 68119  97.2816  39.3125 0001877 111.0770 173.8668 15.83119657  2954
STARLINK-36868          
1 68120U 26044V   26078.66668981 -.02062972  00000+0 -11194-1 0  9992
2 68120  97.2811  39.3144 0001692 103.0194 186.1800 15.83134144  2951
STARLINK-36855          
1 68121U 26044W   26078.66668981 -.02074465  00000+0 -11234-1 0  9998
2 68121  97.2809  39.3165 0001805 105.1968 188.1796 15.83194791  2950
STARLINK-36366          
1 68122U 26044X   26078.66668981 -.02047975  00000+0 -11010-1 0  9997
2 68122  97.2806  39.3184 0001535  94.8815 202.5377 15.83307209  3007
STARLINK-36922          
1 68123U 26044Y   26078.66668981 -.01999300  00000+0 -10621-1 0  9992
2 68123  97.2803  39.3223 0001843 107.0353 198.5638 15.83472042  3007
STARLINK-36938          
1 68124U 26044Z   26078.66668981 -.02109833  00000+0 -11213-1 0  9996
2 68124  97.2798  39.3227 0001688 100.3629 209.2327 15.83649275  3003
STARLINK-36839          
1 68125U 26044AA  26078.66668981 -.02026998  00000+0 -10856-1 0  9999
2 68125  97.2806  39.3208 0001594 102.6140 198.9810 15.83349830  2950
ECHOSTAR 25             
1 68126U 26045A   26078.10295861 -.00000047  00000+0  00000+0 0  9995
2 68126   9.9581  67.2584 4747686 180.7477 178.3967  1.79782376   196
ICOR SV                 
1 68127U 26046A   26072.90953491  .00482503  92133-4  10434-2 0  9997
2 68127 123.0797 224.1306 0140888 188.2572 171.6170 15.82606913   290
